AMC-1 (GE-1)            
1 24315U 96054A   23144.42912508  .00000067  00000+0  00000+0 0  9995
2 24315   6.4301  70.1623 0003550 359.1151 196.0603  1.00272333 97796
AMC-3 (GE-3)            
1 24936U 97050A   23144.46700963 -.00000257  00000+0  00000+0 0  9997
2 24936   5.3836  76.1857 0003020 351.3038 270.4167  1.00270870 94222
ASTRA 1G                
1 25071U 97076A   23143.02345144  .00000115  00000+0  00000+0 0  9995
2 25071   7.0262  65.5836 0004026 354.0987 208.5364  1.00269987 93265
ASTRA 2A                
1 25462U 98050A   23143.85802705  .00000071  00000+0  00000+0 0  9995
2 25462   4.2600  81.8614 0002934 328.4130 197.0107  1.00273491 90506
AMC-4 (GE-4)            
1 25954U 99060A   23143.80921477 -.00000196  00000+0  00000+0 0  9995
2 25954   2.3535  86.3805 0003070   5.0613 253.0079  0.99137802 32303
NSS-11 (AAP-1)          
1 26554U 00059A   23144.45515914  .00000029  00000+0  00000+0 0  9993
2 26554   0.0164   8.0448 0002291  41.3639 172.2343  1.00271855 82943
AMC-6 (GE-6)            
1 26580U 00067A   23144.46785535  .00000108  00000+0  00000+0 0  9998
2 26580   0.0524  83.2780 0002401 339.5446 208.4085  1.00273575 82752
ASTRA 2D                
1 26638U 00081A   23143.59702104 -.00000282  00000+0  00000+0 0  9996
2 26638   8.0191  58.1629 0002694  41.8368 147.0766  0.99004670 41650
AMC-8 (GE-8)            
1 26639U 00081B   23143.67689909  .00000084  00000+0  00000+0 0  9992
2 26639   3.2274  86.0155 0003766 279.0343 347.2749  0.99148932 82079
ASTRA 2C                
1 26853U 01025A   23144.46701019 -.00000256  00000+0  00000+0 0  9996
2 26853   5.4062  76.0014 0002802 334.4084 287.0598  1.00272705 80347
NSS-7                   
1 27414U 02019A   23143.62765017 -.00000157  00000+0  00000+0 0  9999
2 27414   6.6981  68.4148 0002596 354.4267  24.0788  1.00271602 77332
NSS-6                   
1 27603U 02057A   23144.09964350  .00000111  00000+0  00000+0 0  9993
2 27603   2.4767  87.6707 0003179 328.4542  51.6634  1.00273916 74802
AMC-11 (GE-11)          
1 28252U 04017A   23144.11123642 -.00000046  00000+0  00000+0 0  9994
2 28252   0.0243  27.6477 0001233 358.5382 144.2075  1.00272974 69477
AMC-15                  
1 28446U 04041A   23144.37385314 -.00000085  00000+0  00000+0 0  9993
2 28446   0.0179 336.2383 0002402  92.5138 202.4939  1.00273757 68114
NSS-10 (AMC-12)         
1 28526U 05003A   23144.18978020 -.00000247  00000+0  00000+0 0  9992
2 28526   3.6346  83.6317 0002958 322.1746 226.5847  1.00273231 67088
ASTRA 1KR               
1 29055U 06012A   23144.36091328  .00000124  00000+0  00000+0 0  9991
2 29055   0.0199 291.9681 0000262 135.7787 323.0407  1.00271153 62519
AMC-18                  
1 29644U 06054B   23143.97351601 -.00000212  00000+0  00000+0 0  9999
2 29644   0.0426  72.3356 0002095 345.4096  91.0333  1.00270905 60292
ASTRA 1L                
1 31306U 07016A   23144.36091328  .00000124  00000+0  00000+0 0  9998
2 31306   0.0452 328.0993 0003708  36.1591  26.5503  1.00271146 58818
ASTRA 4A (SIRIUS 4)     
1 32299U 07057A   23144.43174142  .00000036  00000+0  00000+0 0  9991
2 32299   0.0499  79.1857 0002357 337.1940 345.6120  1.00271536 56737
AMC-21                  
1 33275U 08038B   23143.67838088  .00000040  00000+0  00000+0 0  9992
2 33275   0.0644 115.1724 0002949 309.9502 295.2072  1.00272320 54259
ASTRA 1M                
1 33436U 08057A   23144.03538883  .00000124  00000+0  00000+0 0  9996
2 33436   0.0617 100.7369 0004148   1.6965 170.8939  1.00273594 53247
CIEL-2                  
1 33453U 08063A   23144.23269644  .00000062  00000+0  00000+0 0  9991
2 33453   0.0125  65.2624 0002846  10.3812 120.8441  1.00272257 52898
NSS-9                   
1 33749U 09008A   23144.55000116  .00000076  00000+0  00000+0 0  9996
2 33749   0.0171 342.0770 0002137  73.4638 207.4002  1.00270987 52336
SES-7 (PROTOSTAR 2)     
1 34941U 09027A   23144.05743649 -.00000341  00000+0  00000+0 0  9998
2 34941   0.0731  89.3335 0000265 187.5525  93.4556  1.00271379 51380
NSS-12                  
1 36032U 09058A   23143.85802705  .00000075  00000+0  00000+0 0  9994
2 36032   0.0529  86.7539 0002355 344.2370 176.1040  1.00270654 49689
SES-1                   
1 36516U 10016A   23144.23809316 -.00000111  00000+0  00000+0 0  9997
2 36516   0.0136 338.5962 0002417  80.3481 167.3583  1.00271993 47902
ASTRA 3B                
1 36581U 10021A   23143.95185941  .00000141  00000+0  00000+0 0  9996
2 36581   0.0957  67.3421 0004073 350.2296 189.9061  1.00272144 47646
SES-3                   
1 37748U 11035A   23144.44670772 -.00000098  00000+0  00000+0 0  9996
2 37748   0.0221  12.9864 0002826  47.9446 238.6625  1.00271795 43469
ASTRA 1N                
1 37775U 11041A   23143.85053088  .00000123  00000+0  00000+0 0  9990
2 37775   0.0746  50.3967 0005296   6.0291 150.1742  1.00271600 33292
SES-2                   
1 37809U 11049A   23144.53405944 -.00000192  00000+0  00000+0 0  9991
2 37809   0.0162  10.7546 0002423  44.7191 291.6539  1.00271965 42774
QUETZSAT 1              
1 37826U 11054A   23144.46350551 -.00000238  00000+0  00000+0 0  9992
2 37826   0.0287  46.9983 0001984   8.8434 275.8222  1.00271142 42870
SES-4                   
1 38087U 12007A   23144.04702104 -.00000165  00000+0  00000+0 0  9999
2 38087   0.0237  42.7885 0002562  29.0528 164.4707  1.00270031 41250
SES-5                   
1 38652U 12036A   23143.99103612  .00000038  00000+0  00000+0 0  9999
2 38652   0.0465 300.3958 0001679 114.3467 188.3454  1.00272610 39833
ASTRA 2F                
1 38778U 12051A   23144.08868517  .00000154  00000+0  00000+0 0  9997
2 38778   0.0531 244.6529 0000627 334.4863  82.4159  1.00270853 39054
SES-6                   
1 39172U 13026A   23144.35743727 -.00000257  00000+0  00000+0 0  9999
2 39172   0.0252 315.6649 0002070 107.7948 266.4135  1.00270849 36481
O3B FM5                 
1 39188U 13031A   23143.49112576 -.00000026  00000+0  00000+0 0  9992
2 39188   0.0549 348.2566 0003021  75.5286 296.2459  5.00115585180974
O3B FM4                 
1 39189U 13031B   23143.34701143 -.00000026  00000+0  00000+0 0  9991
2 39189   0.0435  18.5808 0002960  45.0739 296.3758  5.00116110180980
O3B FM2                 
1 39190U 13031C   23143.83854258 -.00000026  00000+0  00000+0 0  9993
2 39190   0.0421  25.1614 0002864  38.3038 296.5643  5.00115327181059
O3B PFM                 
1 39191U 13031D   23143.66463585 -.00000026  00000+0  00000+0 0  9994
2 39191   0.0511 357.1797 0002649  63.1413 299.7055  5.00116049180619
ASTRA 2E                
1 39285U 13056A   23144.08868517  .00000154  00000+0  00000+0 0  9997
2 39285   0.0585 345.3422 0002610  79.4232 237.0611  1.00271620 35351
SES-8                   
1 39460U 13071A   23144.08055441 -.00000266  00000+0  00000+0 0  9998
2 39460   0.0226 268.7334 0002586 164.1580 292.5323  1.00271960 34642
ASTRA 5B                
1 39617U 14011B   23144.03313219  .00000158  00000+0  00000+0 0  9991
2 39617   0.0671 305.9177 0003274 136.7403 202.1635  1.00271437 33633
O3B FM3                 
1 40079U 14038A   23143.71918829 -.00000026  00000+0  00000+0 0  9991
2 40079   0.0447   8.4603 0002262 354.6136 356.9276  5.00116739156998
O3B FM7                 
1 40080U 14038B   23143.86551311 -.00000026  00000+0  00000+0 0  9998
2 40080   0.0406  10.9294 0004246  66.4045 282.7136  5.00115832161833
O3B FM6                 
1 40081U 14038C   23143.49223680 -.00000026  00000+0  00000+0 0  9993
2 40081   0.0452   9.6638 0002743  50.1336 300.2299  5.00115356161764
O3B FM8                 
1 40082U 14038D   23143.74583671 -.00000026  00000+0  00000+0 0  9991
2 40082   0.0454  13.7934 0002575  47.7477 298.4849  5.00115944161899
O3B FM10                
1 40348U 14083A   23143.77216451 -.00000026  00000+0  00000+0 0  9998
2 40348   0.0521   2.8122 0002672  58.2970 298.9177  5.00115346153841
O3B FM11                
1 40349U 14083B   23143.78551768 -.00000026  00000+0  00000+0 0  9993
2 40349   0.0485 359.2824 0003381  63.4276 297.3245  5.00115569153862
O3B FM12                
1 40350U 14083C   23144.21255582 -.00000026  00000+0  00000+0 0  9999
2 40350   0.0484   0.4378 0002844  58.6360 300.9542  5.00115469154035
O3B FM9                 
1 40351U 14083D   23143.63937644 -.00000026  00000+0  00000+0 0  9991
2 40351   0.0479 358.0560 0002757  63.3980 298.5738  5.00116196154014
ASTRA 2G                
1 40364U 14089A   23143.95529382  .00000153  00000+0  00000+0 0  9992
2 40364   0.0395   9.8175 0004683  51.5486 192.0458  1.00272071 30738
SES-9                   
1 41380U 16013A   23144.45566604 -.00000341  00000+0  00000+0 0  9994
2 41380   0.0098 316.7979 0002177 112.8715  84.4527  1.00271075 26527
SES-10                  
1 42432U 17017A   23143.83335942 -.00000269  00000+0  00000+0 0  9997
2 42432   0.0267  47.6552 0002663  19.9273  46.7094  1.00271578 22510
SES-15                  
1 42709U 17026A   23144.42996843  .00000064  00000+0  00000+0 0  9995
2 42709   0.0267  26.5018 0000227 334.2887 266.6349  1.00269633 22951
SES-11 (ECHOSTAR 105)   
1 42967U 17063A   23144.11245674 -.00000086  00000+0  00000+0 0  9992
2 42967   0.0114 351.6373 0001786  63.5105 121.8276  1.00272261 20578
SES-14                  
1 43175U 18012B   23144.36299163 -.00000275  00000+0  00000+0 0  9998
2 43175   0.0144 317.0308 0000808  99.6767 268.1727  1.00271402 19812
O3B FM15                
1 43231U 18024A   23143.70524896 -.00000026  00000+0  00000+0 0  9999
2 43231   0.0550   4.7604 0002936  53.8537 301.4148  5.00116504 94979
O3B FM16                
1 43232U 18024B   23144.35841375 -.00000026  00000+0  00000+0 0  9996
2 43232   0.0590   5.7705 0002956  53.7563 300.5025  5.00116271 95164
O3B FM14                
1 43233U 18024C   23143.59877293 -.00000026  00000+0  00000+0 0  9990
2 43233   0.0602   6.8643 0003068  54.4869 298.6798  5.00115717 94891
O3B FM13                
1 43234U 18024D   23143.85230497 -.00000026  00000+0  00000+0 0  9999
2 43234   0.0607 346.0330 0003375  61.0004 312.9951  5.00115469 95026
